{"type": "FeatureCollection", "features": [ {"type": "Feature", "properties": {"norad_id": 43010, "name": "FENGYUN 3D", "group": "weather", "lat": 5.5026287391008015, "lon": -42.74537587366734, "alt_km": 829.3490364364625, "timestamp": "2025-12-17T17:50:18.895221+00:00", "meta": {"OBJECT_NAME": "FENGYUN 3D", "OBJECT_ID": "2017-072A", "EPOCH": "2025-12-17T07:39:49.146048", "MEAN_MOTION": 14.19686258, "ECCENTRICITY": 0.00011407, "INCLINATION": 98.9888, "RA_OF_ASC_NODE": 317.6981, "ARG_OF_PERICENTER": 167.8183, "MEAN_ANOMALY": 192.302, "EPHEMERIS_TYPE": 0, "CLASSIFICATION_TYPE": "U", "NORAD_CAT_ID": 43010, "ELEMENT_SET_NO": 999, "REV_AT_EPOCH": 41918, "BSTAR": 0.00014451715, "MEAN_MOTION_DOT": 2.6e-06, "MEAN_MOTION_DDOT": 0}, "tle": {"line1": "1 43010U 17072A   25351.31931882  .00000260  00000+0  14452-3 0  9992", "line2": "2 43010  98.9888 317.6981 0001140 167.8183 192.3020 14.19686258419185"}}, "geometry": {"type": "Point", "coordinates": [-42.74537587366734, 5.5026287391008015]}}, {"type": "Feature", "properties": {"norad_id": 43013, "name": "NOAA 20 (JPSS-1)", "group": "weather", "lat": 24.488714432398414, "lon": 112.01286495252712, "alt_km": 825.8572062030053, "timestamp": "2025-12-17T17:50:18.895232+00:00", "meta": {"OBJECT_NAME": "NOAA 20 (JPSS-1)", "OBJECT_ID": "2017-073A", "EPOCH": "2025-12-17T06:57:38.184192", "MEAN_MOTION": 14.19526982, "ECCENTRICITY": 0.00021565, "INCLINATION": 98.7604, "RA_OF_ASC_NODE": 287.5371, "ARG_OF_PERICENTER": 80.6372, "MEAN_ANOMALY": 279.5047, "EPHEMERIS_TYPE": 0, "CLASSIFICATION_TYPE": "U", "NORAD_CAT_ID": 43013, "ELEMENT_SET_NO": 999, "REV_AT_EPOCH": 41866, "BSTAR": 5.7604186e-05, "MEAN_MOTION_DOT": 7.7e-07, "MEAN_MOTION_DDOT": 0}, "tle": {"line1": "1 43013U 17073A   25351.29002528  .00000077  00000+0  57604-4 0  9992", "line2": "2 43013  98.7604 287.5371 0002156  80.6372 279.5047 14.19526982418666"}}, "geometry": {"type": "Point", "coordinates": [112.01286495252712, 24.488714432398414]}}, {"type": "Feature", "properties": {"norad_id": 43226, "name": "GOES 17", "group": "weather", "lat": 0.010300214920921957, "lon": -95.32429386800857, "alt_km": 35773.55869824254, "timestamp": "2025-12-17T17:50:18.895246+00:00", "meta": {"OBJECT_NAME": "GOES 17", "OBJECT_ID": "2018-022A", "EPOCH": "2025-12-17T04:20:21.725664", "MEAN_MOTION": 1.00271253, "ECCENTRICITY": 0.00031062, "INCLINATION": 0.4696, "RA_OF_ASC_NODE": 89.1547, "ARG_OF_PERICENTER": 190.6602, "MEAN_ANOMALY": 141.8395, "EPHEMERIS_TYPE": 0, "CLASSIFICATION_TYPE": "U", "NORAD_CAT_ID": 43226, "ELEMENT_SET_NO": 999, "REV_AT_EPOCH": 2859, "BSTAR": 0, "MEAN_MOTION_DOT": -1.58e-06, "MEAN_MOTION_DDOT": 0}, "tle": {"line1": "1 43226U 18022A   25351.18080701 -.00000158  00000+0  00000+0 0  9994", "line2": "2 43226   0.4696  89.1547 0003106 190.6602 141.8395  1.00271253 28598"}}, "geometry": {"type": "Point", "coordinates": [-95.32429386800857, 0.010300214920921957]}}, {"type": "Feature", "properties": {"norad_id": 43491, "name": "FENGYUN 2H", "group": "weather", "lat": -0.3187579502756543, "lon": 73.54436336080775, "alt_km": 35796.688821121104, "timestamp": "2025-12-17T17:50:18.895259+00:00", "meta": {"OBJECT_NAME": "FENGYUN 2H", "OBJECT_ID": "2018-050A", "EPOCH": "2025-12-17T01:43:11.582112", "MEAN_MOTION": 1.00271364, "ECCENTRICITY": 0.0002472, "INCLINATION": 2.5619, "RA_OF_ASC_NODE": 81.2842, "ARG_OF_PERICENTER": 166.7945, "MEAN_ANOMALY": 303.0285, "EPHEMERIS_TYPE": 0, "CLASSIFICATION_TYPE": "U", "NORAD_CAT_ID": 43491, "ELEMENT_SET_NO": 999, "REV_AT_EPOCH": 2761, "BSTAR": 0, "MEAN_MOTION_DOT": -1.07e-06, "MEAN_MOTION_DDOT": 0}, "tle": {"line1": "1 43491U 18050A   25351.07166183 -.00000107  00000+0  00000+0 0  9990", "line2": "2 43491   2.5619  81.2842 0002472 166.7945 303.0285  1.00271364 27615"}}, "geometry": {"type": "Point", "coordinates": [73.54436336080775, -0.3187579502756543]}}, {"type": "Feature", "properties": {"norad_id": 43689, "name": "METOP-C", "group": "weather", "lat": -28.458964792741043, "lon": 54.19269671717144, "alt_km": 825.7312741334244, "timestamp": "2025-12-17T17:50:18.895281+00:00", "meta": {"OBJECT_NAME": "METOP-C", "OBJECT_ID": "2018-087A", "EPOCH": "2025-12-17T07:50:16.395360", "MEAN_MOTION": 14.21486127, "ECCENTRICITY": 0.00010299, "INCLINATION": 98.6925, "RA_OF_ASC_NODE": 49.0259, "ARG_OF_PERICENTER": 30.8333, "MEAN_ANOMALY": 329.2905, "EPHEMERIS_TYPE": 0, "CLASSIFICATION_TYPE": "U", "NORAD_CAT_ID": 43689, "ELEMENT_SET_NO": 999, "REV_AT_EPOCH": 36899, "BSTAR": 7.4840284e-05, "MEAN_MOTION_DOT": 1.2e-06, "MEAN_MOTION_DDOT": 0}, "tle": {"line1": "1 43689U 18087A   25351.32657865  .00000120  00000+0  74840-4 0  9991", "line2": "2 43689  98.6925  49.0259 0001029  30.8333 329.2905 14.21486127368993"}}, "geometry": {"type": "Point", "coordinates": [54.19269671717144, -28.458964792741043]}}, {"type": "Feature", "properties": {"norad_id": 43823, "name": "GEO-KOMPSAT-2A", "group": "weather", "lat": 0.02344329935302493, "lon": 122.46044161791244, "alt_km": 35784.28691557308, "timestamp": "2025-12-17T17:50:18.895293+00:00", "meta": {"OBJECT_NAME": "GEO-KOMPSAT-2A", "OBJECT_ID": "2018-100A", "EPOCH": "2025-12-16T07:07:06.206304", "MEAN_MOTION": 1.00271835, "ECCENTRICITY": 4.993e-05, "INCLINATION": 0.0508, "RA_OF_ASC_NODE": 132.3973, "ARG_OF_PERICENTER": 330.4458, "MEAN_ANOMALY": 217.3998, "EPHEMERIS_TYPE": 0, "CLASSIFICATION_TYPE": "U", "NORAD_CAT_ID": 43823, "ELEMENT_SET_NO": 999, "REV_AT_EPOCH": 2579, "BSTAR": 0, "MEAN_MOTION_DOT": -3.2e-06, "MEAN_MOTION_DDOT": 0}, "tle": {"line1": "1 43823U 18100A   25350.29659961 -.00000320  00000+0  00000+0 0  9996", "line2": "2 43823   0.0508 132.3973 0000499 330.4458 217.3998  1.00271835 25791"}}, "geometry": {"type": "Point", "coordinates": [122.46044161791244, 0.02344329935302493]}}, {"type": "Feature", "properties": {"norad_id": 44387, "name": "METEOR-M2 2", "group": "weather", "lat": 79.29972462303171, "lon": -152.47311009430223, "alt_km": 802.6909498584555, "timestamp": "2025-12-17T17:50:18.895304+00:00", "meta": {"OBJECT_NAME": "METEOR-M2 2", "OBJECT_ID": "2019-038A", "EPOCH": "2025-12-17T07:16:25.696416", "MEAN_MOTION": 14.24293306, "ECCENTRICITY": 0.00014505, "INCLINATION": 98.8969, "RA_OF_ASC_NODE": 331.0878, "ARG_OF_PERICENTER": 138.0902, "MEAN_ANOMALY": 222.0387, "EPHEMERIS_TYPE": 0, "CLASSIFICATION_TYPE": "U", "NORAD_CAT_ID": 44387, "ELEMENT_SET_NO": 999, "REV_AT_EPOCH": 33540, "BSTAR": 3.7568236e-05, "MEAN_MOTION_DOT": 4.1e-07, "MEAN_MOTION_DDOT": 0}, "tle": {"line1": "1 44387U 19038A   25351.30307519  .00000041  00000+0  37568-4 0  9998", "line2": "2 44387  98.8969 331.0878 0001450 138.0902 222.0387 14.24293306335403"}}, "geometry": {"type": "Point", "coordinates": [-152.47311009430223, 79.29972462303171]}}, {"type": "Feature", "properties": {"norad_id": 47719, "name": "ARKTIKA-M 1", "group": "weather", "lat": 61.947846393656526, "lon": 154.8445776556297, "alt_km": 38252.50990302661, "timestamp": "2025-12-17T17:50:18.895318+00:00", "meta": {"OBJECT_NAME": "ARKTIKA-M 1", "OBJECT_ID": "2021-016A", "EPOCH": "2025-12-16T01:33:46.454400", "MEAN_MOTION": 2.00630649, "ECCENTRICITY": 0.72056757, "INCLINATION": 63.179, "RA_OF_ASC_NODE": 83.5626, "ARG_OF_PERICENTER": 269.1378, "MEAN_ANOMALY": 15.5886, "EPHEMERIS_TYPE": 0, "CLASSIFICATION_TYPE": "U", "NORAD_CAT_ID": 47719, "ELEMENT_SET_NO": 999, "REV_AT_EPOCH": 3511, "BSTAR": 0, "MEAN_MOTION_DOT": -1.08e-06, "MEAN_MOTION_DDOT": 0}, "tle": {"line1": "1 47719U 21016A   25350.06512100 -.00000108  00000+0  00000+0 0  9996", "line2": "2 47719  63.1790  83.5626 7205675 269.1378  15.5886  2.00630649 35117"}}, "geometry": {"type": "Point", "coordinates": [154.8445776556297, 61.947846393656526]}}, {"type": "Feature", "properties": {"norad_id": 49008, "name": "FENGYUN 3E", "group": "weather", "lat": -23.994773232103157, "lon": -3.8648340724251136, "alt_km": 831.3240466655843, "timestamp": "2025-12-17T17:50:18.895331+00:00", "meta": {"OBJECT_NAME": "FENGYUN 3E", "OBJECT_ID": "2021-062A", "EPOCH": "2025-12-17T07:48:19.250784", "MEAN_MOTION": 14.19880902, "ECCENTRICITY": 6.404e-05, "INCLINATION": 98.7475, "RA_OF_ASC_NODE": 351.7923, "ARG_OF_PERICENTER": 232.2891, "MEAN_ANOMALY": 127.8227, "EPHEMERIS_TYPE": 0, "CLASSIFICATION_TYPE": "U", "NORAD_CAT_ID": 49008, "ELEMENT_SET_NO": 999, "REV_AT_EPOCH": 23077, "BSTAR": 1.8157614e-05, "MEAN_MOTION_DOT": -5e-08, "MEAN_MOTION_DDOT": 0}, "tle": {"line1": "1 49008U 21062A   25351.32522281 -.00000005  00000+0  18158-4 0  9995", "line2": "2 49008  98.7475 351.7923 0000640 232.2891 127.8227 14.19880902230770"}}, "geometry": {"type": "Point", "coordinates": [-3.8648340724251136, -23.994773232103157]}}, {"type": "Feature", "properties": {"norad_id": 51850, "name": "GOES 18", "group": "weather", "lat": -0.004089016876145768, "lon": -142.8208352056575, "alt_km": 35786.51962127287, "timestamp": "2025-12-17T17:50:18.895354+00:00", "meta": {"OBJECT_NAME": "GOES 18", "OBJECT_ID": "2022-021A", "EPOCH": "2025-12-16T08:28:42.807936", "MEAN_MOTION": 1.00271857, "ECCENTRICITY": 4.701e-05, "INCLINATION": 0.0125, "RA_OF_ASC_NODE": 94.3935, "ARG_OF_PERICENTER": 230.6521, "MEAN_ANOMALY": 110.3782, "EPHEMERIS_TYPE": 0, "CLASSIFICATION_TYPE": "U", "NORAD_CAT_ID": 51850, "ELEMENT_SET_NO": 999, "REV_AT_EPOCH": 475, "BSTAR": 0, "MEAN_MOTION_DOT": 1.2e-06, "MEAN_MOTION_DDOT": 0}, "tle": {"line1": "1 51850U 22021A   25350.35327324  .00000120  00000+0  00000+0 0  9991", "line2": "2 51850   0.0125  94.3935 0000470 230.6521 110.3782  1.00271857  4751"}}, "geometry": {"type": "Point", "coordinates": [-142.8208352056575, -0.004089016876145768]}}]}